{
  "type": "FeatureCollection",
  "name": "dahan-waterfront-paths",
  "description": "大漢溪流域親水廊道（沿河道線段；僅含距河道與河濱自行車道涵蓋之河段）",
  "metadata": {
    "max_dist_to_river_m": 650,
    "bike_points_raw": 159,
    "bike_points_near_river": 135,
    "line_segments": 3
  },
  "features": [
    {
      "type": "Feature",
      "geometry": {
        "type": "LineString",
        "coordinates": [
          [
            121.3966512,
            24.9669197
          ],
          [
            121.3975209,
            24.9672284
          ],
          [
            121.3983916,
            24.9676691
          ],
          [
            121.3990272,
            24.9680073
          ],
          [
            121.4002044,
            24.9680451
          ],
          [
            121.40138160000001,
            24.9680829
          ],
          [
            121.4025588,
            24.9681207
          ],
          [
            121.403736,
            24.9681585
          ],
          [
            121.40492355,
            24.9681607
          ],
          [
            121.4061111,
            24.9681629
          ],
          [
            121.40695984999999,
            24.96821285
          ],
          [
            121.4078086,
            24.9682628
          ],
          [
            121.40867723333334,
            24.968228933333336
          ],
          [
            121.40954586666666,
            24.968195066666667
          ],
          [
            121.4104145,
            24.9681612
          ],
          [
            121.4109231,
            24.9672707
          ],
          [
            121.41136165,
            24.9667226
          ],
          [
            121.4118002,
            24.9661745
          ],
          [
            121.4122883,
            24.966483
          ],
          [
            121.4129242,
            24.9667921
          ],
          [
            121.41352455,
            24.96705455
          ],
          [
            121.4141249,
            24.967317
          ],
          [
            121.41522660000001,
            24.967618950000002
          ],
          [
            121.4163283,
            24.9679209
          ],
          [
            121.41736173333334,
            24.968062466666666
          ],
          [
            121.41839516666667,
            24.968204033333333
          ],
          [
            121.4194286,
            24.9683456
          ],
          [
            121.42037615000001,
            24.96849735
          ],
          [
            121.4213237,
            24.9686491
          ],
          [
            121.4221281,
            24.968937333333333
          ],
          [
            121.4229325,
            24.96922556666667
          ],
          [
            121.4237369,
            24.9695138
          ],
          [
            121.4243859,
            24.970143450000002
          ],
          [
            121.4250349,
            24.9707731
          ],
          [
            121.4253041,
            24.9712081
          ],
          [
            121.42572940000001,
            24.971895399999998
          ],
          [
            121.4261547,
            24.9725827
          ],
          [
            121.42658,
            24.97327
          ],
          [
            121.42700865,
            24.974150549999997
          ],
          [
            121.4274373,
            24.9750311
          ],
          [
            121.4277262,
            24.9757703
          ],
          [
            121.4280151,
            24.9765095
          ],
          [
            121.428304,
            24.9772487
          ],
          [
            121.42883929999999,
            24.9779752
          ],
          [
            121.4293746,
            24.9787017
          ],
          [
            121.4297578,
            24.9790077
          ],
          [
            121.430542,
            24.979634
          ],
          [
            121.4313262,
            24.9802603
          ],
          [
            121.4314039,
            24.9803363
          ],
          [
            121.43195065,
            24.98087115
          ],
          [
            121.4324974,
            24.981406
          ],
          [
            121.4332129,
            24.98225265
          ],
          [
            121.4339284,
            24.9830993
          ],
          [
            121.434367825,
            24.983816625
          ],
          [
            121.43480725,
            24.98453395
          ],
          [
            121.435246675,
            24.985251275
          ],
          [
            121.4356861,
            24.9859686
          ],
          [
            121.43589586666667,
            24.9866712
          ],
          [
            121.43610563333333,
            24.9873738
          ],
          [
            121.4363154,
            24.9880764
          ],
          [
            121.43636269999999,
            24.989098900000002
          ],
          [
            121.43641,
            24.9901214
          ],
          [
            121.43636955,
            24.9910976
          ],
          [
            121.4363291,
            24.9920738
          ],
          [
            121.43629656666667,
            24.992858966666667
          ],
          [
            121.43626403333333,
            24.993644133333333
          ],
          [
            121.4362315,
            24.9944293
          ],
          [
            121.4362995,
            24.995279
          ],
          [
            121.4363675,
            24.9961287
          ],
          [
            121.4364355,
            24.9969784
          ],
          [
            121.436466525,
            24.99788885
          ],
          [
            121.43649755,
            24.9987993
          ],
          [
            121.436528575,
            24.99970975
          ],
          [
            121.4365596,
            25.0006202
          ],
          [
            121.4365884,
            25.0014647
          ],
          [
            121.43672094,
            25.00235686
          ],
          [
            121.43685348,
            25.00324902
          ],
          [
            121.43698602,
            25.00414118
          ],
          [
            121.43711856,
            25.00503334
          ],
          [
            121.4372511,
            25.0059255
          ],
          [
            121.437557,
            25.006875025
          ],
          [
            121.4378629,
            25.007824550000002
          ],
          [
            121.4381688,
            25.008774075
          ],
          [
            121.4384747,
            25.0097236
          ],
          [
            121.43886556666666,
            25.010607266666668
          ],
          [
            121.43925643333334,
            25.011490933333334
          ],
          [
            121.4396473,
            25.0123746
          ],
          [
            121.44011885,
            25.013101075
          ],
          [
            121.4405904,
            25.013827550000002
          ],
          [
            121.44106195,
            25.014554025
          ],
          [
            121.4415335,
            25.0152805
          ],
          [
            121.44205607500001,
            25.016115325
          ],
          [
            121.44257865,
            25.01695015
          ],
          [
            121.44310122499999,
            25.017784974999998
          ],
          [
            121.4436238,
            25.0186198
          ],
          [
            121.44416203333333,
            25.019336433333333
          ],
          [
            121.44470026666667,
            25.020053066666666
          ],
          [
            121.4452385,
            25.0207697
          ],
          [
            121.44572836666667,
            25.021573999999998
          ],
          [
            121.44621823333333,
            25.0223783
          ],
          [
            121.4467081,
            25.0231826
          ],
          [
            121.44727044,
            25.02393876
          ],
          [
            121.44783278,
            25.024694919999998
          ],
          [
            121.44839512,
            25.02545108
          ],
          [
            121.44895746,
            25.026207239999998
          ],
          [
            121.4495198,
            25.0269634
          ],
          [
            121.45012965000001,
            25.0277834
          ],
          [
            121.4507395,
            25.0286034
          ],
          [
            121.45134935,
            25.0294234
          ],
          [
            121.4519592,
            25.0302434
          ],
          [
            121.4526411,
            25.0308234
          ],
          [
            121.45340895,
            25.03147655
          ],
          [
            121.4541768,
            25.0321297
          ],
          [
            121.45511995,
            25.0326905
          ],
          [
            121.4560631,
            25.0332513
          ],
          [
            121.456840575,
            25.033691
          ],
          [
            121.45761805000001,
            25.0341307
          ],
          [
            121.458395525,
            25.0345704
          ],
          [
            121.459173,
            25.0350101
          ],
          [
            121.46003966,
            25.035382260000002
          ],
          [
            121.46090632,
            25.03575442
          ],
          [
            121.46177298,
            25.03612658
          ],
          [
            121.46263964,
            25.03649874
          ],
          [
            121.4635063,
            25.0368709
          ],
          [
            121.46458965000001,
            25.03727025
          ],
          [
            121.46567300000001,
            25.0376696
          ],
          [
            121.46675635,
            25.03806895
          ],
          [
            121.4678397,
            25.038468299999998
          ],
          [
            121.46892305,
            25.03886765
          ],
          [
            121.4700064,
            25.039267
          ],
          [
            121.471057875,
            25.039464575
          ],
          [
            121.47210935000001,
            25.039662149999998
          ],
          [
            121.47316082500001,
            25.039859725
          ],
          [
            121.4742123,
            25.0400573
          ],
          [
            121.47533898,
            25.040291800000002
          ],
          [
            121.47646566,
            25.0405263
          ],
          [
            121.47759234,
            25.0407608
          ],
          [
            121.47871902,
            25.0409953
          ],
          [
            121.4798457,
            25.0412298
          ],
          [
            121.4809392875,
            25.04161845
          ],
          [
            121.482032875,
            25.0420071
          ]
        ]
      },
      "properties": {
        "name": "大漢溪親水自行車道",
        "category": "親水廊道",
        "river": "大漢溪",
        "segment_id": 1,
        "length_m": 30149,
        "source": "河道裁切＋新北市自行車道出入口（空間篩選）"
      }
    },
    {
      "type": "Feature",
      "geometry": {
        "type": "LineString",
        "coordinates": [
          [
            121.385265,
            24.9633376
          ],
          [
            121.3858254,
            24.9636772
          ],
          [
            121.38675035,
            24.963879499999997
          ],
          [
            121.3876753,
            24.9640818
          ],
          [
            121.3883779,
            24.9642355
          ],
          [
            121.38903145,
            24.96441915
          ],
          [
            121.389685,
            24.9646028
          ],
          [
            121.3903336,
            24.964989
          ],
          [
            121.3911895,
            24.9652612
          ],
          [
            121.39214045,
            24.965652050000003
          ],
          [
            121.3930914,
            24.9660429
          ],
          [
            121.3938734,
            24.9661349
          ],
          [
            121.3945353,
            24.9662687
          ],
          [
            121.3951972,
            24.9664025
          ],
          [
            121.3959242,
            24.9666611
          ],
          [
            121.3966512,
            24.9669197
          ]
        ]
      },
      "properties": {
        "name": "大漢溪親水自行車道",
        "category": "親水廊道",
        "river": "大漢溪",
        "segment_id": 2,
        "length_m": 1710,
        "source": "河道裁切＋新北市自行車道出入口（空間篩選）"
      }
    },
    {
      "type": "Feature",
      "geometry": {
        "type": "LineString",
        "coordinates": [
          [
            121.32180963333333,
            24.92146723333333
          ],
          [
            121.3226732,
            24.9221242
          ],
          [
            121.3231199,
            24.92287795
          ],
          [
            121.3235666,
            24.9236317
          ],
          [
            121.3240065,
            24.92437405
          ],
          [
            121.3244464,
            24.9251164
          ],
          [
            121.3248808,
            24.9256177
          ],
          [
            121.3257107,
            24.926380299999998
          ],
          [
            121.3265406,
            24.9271429
          ],
          [
            121.32764934000001,
            24.92741298
          ],
          [
            121.32875808,
            24.92768306
          ],
          [
            121.32986682,
            24.92795314
          ],
          [
            121.33097556,
            24.92822322
          ],
          [
            121.3320843,
            24.9284933
          ],
          [
            121.33319565,
            24.928356700000002
          ],
          [
            121.334307,
            24.9282201
          ],
          [
            121.3351031,
            24.928107100000002
          ],
          [
            121.3358992,
            24.9279941
          ],
          [
            121.3366953,
            24.9278811
          ],
          [
            121.337643,
            24.928199033333332
          ],
          [
            121.3385907,
            24.928516966666667
          ],
          [
            121.3395384,
            24.9288349
          ],
          [
            121.3404836,
            24.929363533333333
          ],
          [
            121.3414288,
            24.929892166666665
          ],
          [
            121.342374,
            24.9304208
          ],
          [
            121.34306595000001,
            24.931195199999998
          ],
          [
            121.3437579,
            24.9319696
          ],
          [
            121.3446179,
            24.932155
          ],
          [
            121.3451288,
            24.9318847
          ],
          [
            121.3459378,
            24.9321086
          ],
          [
            121.34666385,
            24.93261595
          ],
          [
            121.3473899,
            24.9331233
          ],
          [
            121.3476738,
            24.9336933
          ],
          [
            121.3479577,
            24.9342633
          ],
          [
            121.348192,
            24.935154
          ],
          [
            121.3484263,
            24.9360447
          ],
          [
            121.3486606,
            24.9369354
          ],
          [
            121.34888965,
            24.93793005
          ],
          [
            121.3491187,
            24.9389247
          ],
          [
            121.34964145000001,
            24.93978465
          ],
          [
            121.3501642,
            24.9406446
          ],
          [
            121.35078862499999,
            24.941503224999998
          ],
          [
            121.35141304999999,
            24.942361849999998
          ],
          [
            121.35203747499999,
            24.943220475
          ],
          [
            121.35266189999999,
            24.9440791
          ],
          [
            121.353286325,
            24.944937725
          ],
          [
            121.35391075,
            24.945796350000002
          ],
          [
            121.354535175,
            24.946654975
          ],
          [
            121.3551596,
            24.9475136
          ],
          [
            121.35591439999999,
            24.9479883
          ],
          [
            121.3566692,
            24.948463
          ],
          [
            121.357424,
            24.9489377
          ],
          [
            121.3580676,
            24.9497512
          ],
          [
            121.358903,
            24.950262
          ],
          [
            121.3593765,
            24.9503512
          ],
          [
            121.3599442,
            24.9506755
          ],
          [
            121.3603738,
            24.9509594
          ],
          [
            121.36105615,
            24.951296999999997
          ],
          [
            121.3617385,
            24.9516346
          ],
          [
            121.3627733,
            24.9521466
          ],
          [
            121.3638081,
            24.9526586
          ],
          [
            121.3648429,
            24.9531706
          ]
        ]
      },
      "properties": {
        "name": "大漢溪親水自行車道",
        "category": "親水廊道",
        "river": "大漢溪",
        "segment_id": 3,
        "length_m": 13516,
        "source": "河道裁切＋新北市自行車道出入口（空間篩選）"
      }
    }
  ]
}