{
  "type": "FeatureCollection",
  "features": [
    {
      "type": "Feature",
      "geometry": {
        "type": "LineString",
        "coordinates": [
          [
            121.376457,
            24.6800339
          ],
          [
            121.3764439,
            24.6803522
          ],
          [
            121.3765487,
            24.6806624
          ],
          [
            121.3768534,
            24.6810251
          ],
          [
            121.3771105,
            24.6810955
          ],
          [
            121.3774566,
            24.6810663
          ],
          [
            121.3776711,
            24.6809682
          ],
          [
            121.3781389,
            24.6808439
          ],
          [
            121.3783627,
            24.6808024
          ],
          [
            121.3785662,
            24.6808252
          ],
          [
            121.3788489,
            24.6809179
          ],
          [
            121.3794777,
            24.6812588
          ],
          [
            121.3800727,
            24.6814052
          ],
          [
            121.3811741,
            24.6815416
          ],
          [
            121.3821641,
            24.6816328
          ],
          [
            121.3829175,
            24.6818724
          ],
          [
            121.3835446,
            24.6821686
          ],
          [
            121.3838605,
            24.6825033
          ],
          [
            121.3839624,
            24.6828226
          ],
          [
            121.3838613,
            24.6832868
          ],
          [
            121.3836532,
            24.6836486
          ],
          [
            121.3835381,
            24.683972
          ],
          [
            121.3835524,
            24.6843825
          ],
          [
            121.3835478,
            24.6851046
          ],
          [
            121.3834188,
            24.685348
          ],
          [
            121.3831152,
            24.6854481
          ],
          [
            121.3827939,
            24.6853707
          ],
          [
            121.3824613,
            24.685237
          ],
          [
            121.3818839,
            24.6852034
          ],
          [
            121.3813008,
            24.6852824
          ],
          [
            121.3807993,
            24.6855478
          ],
          [
            121.3805502,
            24.6859452
          ],
          [
            121.3803368,
            24.686602
          ],
          [
            121.3801581,
            24.6872771
          ],
          [
            121.3801348,
            24.6877763
          ],
          [
            121.3802246,
            24.6881563
          ],
          [
            121.3804067,
            24.6886
          ],
          [
            121.3810027,
            24.6893248
          ],
          [
            121.3816464,
            24.6898831
          ],
          [
            121.3818366,
            24.6903929
          ],
          [
            121.3818037,
            24.6908665
          ],
          [
            121.381528,
            24.6911954
          ],
          [
            121.3809416,
            24.6914302
          ],
          [
            121.3801165,
            24.6914171
          ],
          [
            121.3795208,
            24.6914792
          ],
          [
            121.378933,
            24.691773
          ],
          [
            121.3784801,
            24.6921223
          ],
          [
            121.3779237,
            24.6926524
          ],
          [
            121.3776152,
            24.6933655
          ],
          [
            121.3776218,
            24.6937787
          ],
          [
            121.3777583,
            24.6941121
          ],
          [
            121.3781774,
            24.6943284
          ],
          [
            121.3788355,
            24.6944543
          ],
          [
            121.3797015,
            24.6945674
          ],
          [
            121.3805197,
            24.6945503
          ],
          [
            121.3816305,
            24.6947656
          ],
          [
            121.3822483,
            24.6950689
          ],
          [
            121.3828502,
            24.695716
          ],
          [
            121.3829712,
            24.6960962
          ],
          [
            121.382945,
            24.696462
          ],
          [
            121.3826535,
            24.6970705
          ],
          [
            121.3821874,
            24.6973956
          ],
          [
            121.38158,
            24.6975147
          ],
          [
            121.381064,
            24.6973874
          ],
          [
            121.3806616,
            24.6971698
          ],
          [
            121.3800506,
            24.6970323
          ],
          [
            121.3792804,
            24.6971409
          ],
          [
            121.3785859,
            24.6974629
          ],
          [
            121.3780347,
            24.6980165
          ],
          [
            121.3775195,
            24.6986855
          ],
          [
            121.3773866,
            24.6993255
          ],
          [
            121.3774572,
            24.7000996
          ],
          [
            121.3777365,
            24.7004448
          ],
          [
            121.3781634,
            24.7006686
          ],
          [
            121.3783994,
            24.7008674
          ],
          [
            121.3784498,
            24.7010257
          ],
          [
            121.3784326,
            24.7012453
          ],
          [
            121.3783138,
            24.7015122
          ],
          [
            121.3779622,
            24.702053
          ],
          [
            121.377601,
            24.7022626
          ],
          [
            121.3767858,
            24.7025011
          ],
          [
            121.3758735,
            24.7025792
          ],
          [
            121.3748815,
            24.7025415
          ],
          [
            121.3741286,
            24.7024802
          ],
          [
            121.3733292,
            24.7022802
          ],
          [
            121.372052,
            24.7018269
          ],
          [
            121.3711495,
            24.7012116
          ],
          [
            121.3692705,
            24.6999175
          ],
          [
            121.3687176,
            24.6995354
          ],
          [
            121.3682739,
            24.6994117
          ],
          [
            121.3678986,
            24.6995043
          ],
          [
            121.3674723,
            24.6998142
          ],
          [
            121.3672451,
            24.7001168
          ],
          [
            121.3671745,
            24.7003684
          ],
          [
            121.3672357,
            24.7007189
          ],
          [
            121.3673987,
            24.7010068
          ],
          [
            121.3675392,
            24.7011581
          ],
          [
            121.3675797,
            24.7012965
          ],
          [
            121.3675131,
            24.7015065
          ],
          [
            121.3671859,
            24.7018211
          ],
          [
            121.3669544,
            24.7021261
          ],
          [
            121.3668415,
            24.7023503
          ],
          [
            121.3668018,
            24.7027228
          ],
          [
            121.3668934,
            24.7030206
          ],
          [
            121.3671352,
            24.7034067
          ],
          [
            121.3672151,
            24.7036148
          ],
          [
            121.3671662,
            24.7037801
          ],
          [
            121.3668691,
            24.7040507
          ],
          [
            121.3666734,
            24.7042854
          ],
          [
            121.3664475,
            24.7046987
          ],
          [
            121.3661823,
            24.7051551
          ],
          [
            121.3659685,
            24.7056979
          ],
          [
            121.3657203,
            24.7061408
          ],
          [
            121.3653018,
            24.7066848
          ],
          [
            121.3651057,
            24.7069449
          ],
          [
            121.3649556,
            24.7072744
          ],
          [
            121.3649032,
            24.7077441
          ],
          [
            121.3649941,
            24.7083222
          ],
          [
            121.3651902,
            24.7094564
          ],
          [
            121.3651273,
            24.7100176
          ],
          [
            121.3649021,
            24.7104718
          ],
          [
            121.3641026,
            24.7112227
          ],
          [
            121.3635575,
            24.7119204
          ],
          [
            121.3633277,
            24.7126284
          ],
          [
            121.3632999,
            24.7129638
          ],
          [
            121.3633994,
            24.7131689
          ],
          [
            121.363528,
            24.7132685
          ],
          [
            121.3637354,
            24.713317
          ],
          [
            121.3641064,
            24.7133613
          ],
          [
            121.3644493,
            24.7135438
          ],
          [
            121.3646788,
            24.7139277
          ],
          [
            121.3647992,
            24.7143794
          ],
          [
            121.364708,
            24.7147825
          ],
          [
            121.3644576,
            24.7150842
          ],
          [
            121.3640259,
            24.7152228
          ],
          [
            121.3632119,
            24.7153758
          ],
          [
            121.3626214,
            24.7154181
          ],
          [
            121.3622111,
            24.7153529
          ],
          [
            121.3619533,
            24.7152202
          ],
          [
            121.3617068,
            24.7151796
          ],
          [
            121.3612864,
            24.7151887
          ],
          [
            121.360607,
            24.7153666
          ],
          [
            121.3598846,
            24.715615
          ],
          [
            121.3591845,
            24.7159649
          ],
          [
            121.3587055,
            24.7162507
          ],
          [
            121.358266,
            24.7166796
          ],
          [
            121.3579418,
            24.7168647
          ],
          [
            121.357291,
            24.7170089
          ],
          [
            121.3565613,
            24.7170354
          ],
          [
            121.3559048,
            24.7169749
          ],
          [
            121.3550847,
            24.7167385
          ],
          [
            121.3544627,
            24.7163981
          ],
          [
            121.3541488,
            24.7162996
          ],
          [
            121.3538906,
            24.716327
          ],
          [
            121.3536098,
            24.7165233
          ],
          [
            121.3531167,
            24.7169494
          ],
          [
            121.352725,
            24.717524
          ],
          [
            121.3523808,
            24.7180898
          ],
          [
            121.3521131,
            24.7187108
          ],
          [
            121.3521522,
            24.7191128
          ],
          [
            121.3522871,
            24.7194637
          ],
          [
            121.3526849,
            24.7201339
          ],
          [
            121.3533857,
            24.7206476
          ],
          [
            121.3534965,
            24.7208072
          ],
          [
            121.3535153,
            24.7209673
          ],
          [
            121.3534579,
            24.7211479
          ],
          [
            121.3534427,
            24.7213362
          ],
          [
            121.3536077,
            24.7217291
          ],
          [
            121.3536289,
            24.7224719
          ],
          [
            121.3538712,
            24.7231212
          ],
          [
            121.3540753,
            24.7234496
          ],
          [
            121.3543027,
            24.7237611
          ],
          [
            121.3545528,
            24.7239104
          ],
          [
            121.3548744,
            24.7239584
          ],
          [
            121.3551806,
            24.7238794
          ],
          [
            121.3555107,
            24.7237135
          ],
          [
            121.3556652,
            24.7235373
          ],
          [
            121.3557845,
            24.7231997
          ],
          [
            121.3559215,
            24.7231038
          ],
          [
            121.3560888,
            24.7230872
          ],
          [
            121.3565883,
            24.7231756
          ],
          [
            121.3571807,
            24.7232538
          ],
          [
            121.3576975,
            24.7234254
          ],
          [
            121.3580847,
            24.7236635
          ],
          [
            121.3586505,
            24.7245088
          ],
          [
            121.3589728,
            24.7250695
          ],
          [
            121.3591378,
            24.7254898
          ],
          [
            121.3591114,
            24.7259254
          ],
          [
            121.3585348,
            24.7266636
          ],
          [
            121.3584477,
            24.7270696
          ],
          [
            121.3586553,
            24.7278065
          ],
          [
            121.3590769,
            24.7283592
          ],
          [
            121.3597515,
            24.7289499
          ],
          [
            121.3603366,
            24.7293937
          ],
          [
            121.3611337,
            24.7297275
          ],
          [
            121.3616651,
            24.7301034
          ],
          [
            121.3617976,
            24.7304134
          ],
          [
            121.3617549,
            24.7307669
          ],
          [
            121.361303,
            24.7313292
          ],
          [
            121.3603134,
            24.7321301
          ],
          [
            121.359615,
            24.7324485
          ],
          [
            121.3588999,
            24.7326426
          ],
          [
            121.3584513,
            24.7329215
          ],
          [
            121.3575659,
            24.733604
          ],
          [
            121.3567914,
            24.7338623
          ],
          [
            121.3554537,
            24.7339671
          ],
          [
            121.3542832,
            24.7341069
          ],
          [
            121.353734,
            24.7341779
          ],
          [
            121.3529312,
            24.7344408
          ],
          [
            121.3525631,
            24.7346442
          ],
          [
            121.3522497,
            24.7350667
          ],
          [
            121.3519171,
            24.7360291
          ],
          [
            121.3515746,
            24.7371925
          ],
          [
            121.3515873,
            24.7375899
          ],
          [
            121.3515035,
            24.7378601
          ],
          [
            121.3512846,
            24.7382327
          ],
          [
            121.3510773,
            24.7385812
          ],
          [
            121.3509461,
            24.7389406
          ],
          [
            121.3508585,
            24.7396243
          ],
          [
            121.3507788,
            24.7398669
          ],
          [
            121.3506021,
            24.7400971
          ],
          [
            121.3503842,
            24.7403103
          ],
          [
            121.3495035,
            24.7411567
          ],
          [
            121.3490547,
            24.7415881
          ],
          [
            121.3488199,
            24.7420809
          ],
          [
            121.3489136,
            24.7426182
          ],
          [
            121.3492167,
            24.7428464
          ],
          [
            121.3496022,
            24.7431536
          ],
          [
            121.3508463,
            24.7439173
          ],
          [
            121.351321,
            24.7440925
          ],
          [
            121.3522395,
            24.7445353
          ],
          [
            121.3531188,
            24.7447025
          ],
          [
            121.3541951,
            24.7447573
          ],
          [
            121.3551592,
            24.7448964
          ],
          [
            121.3558303,
            24.745123
          ],
          [
            121.356573,
            24.7456401
          ],
          [
            121.3571242,
            24.7464232
          ],
          [
            121.3576569,
            24.7475331
          ],
          [
            121.3580593,
            24.7482356
          ],
          [
            121.3583609,
            24.7484604
          ],
          [
            121.3587247,
            24.7484637
          ],
          [
            121.3590434,
            24.7482931
          ],
          [
            121.3593787,
            24.7478535
          ],
          [
            121.3598227,
            24.747295
          ],
          [
            121.3604487,
            24.7467414
          ],
          [
            121.3609579,
            24.7464542
          ],
          [
            121.3614293,
            24.7462888
          ],
          [
            121.3617711,
            24.7463791
          ],
          [
            121.3620268,
            24.7465995
          ],
          [
            121.3623614,
            24.7469785
          ],
          [
            121.3626568,
            24.7473622
          ],
          [
            121.3630202,
            24.7480226
          ],
          [
            121.3632949,
            24.7488254
          ],
          [
            121.3633097,
            24.7488685
          ],
          [
            121.3636179,
            24.7510688
          ],
          [
            121.3634987,
            24.752255
          ],
          [
            121.3630409,
            24.7529463
          ],
          [
            121.3624289,
            24.7534305
          ],
          [
            121.3616853,
            24.753603
          ],
          [
            121.3602022,
            24.7531073
          ],
          [
            121.3593065,
            24.7531971
          ],
          [
            121.3586361,
            24.7534709
          ],
          [
            121.3570236,
            24.7550545
          ],
          [
            121.3563637,
            24.7554168
          ],
          [
            121.3556907,
            24.7555205
          ],
          [
            121.3549183,
            24.7553579
          ],
          [
            121.3545759,
            24.7553498
          ],
          [
            121.3542335,
            24.7554429
          ],
          [
            121.3538353,
            24.755716
          ],
          [
            121.3535165,
            24.7557805
          ],
          [
            121.3530862,
            24.7557147
          ],
          [
            121.3526614,
            24.7555834
          ],
          [
            121.3520052,
            24.7555136
          ],
          [
            121.3515542,
            24.7556594
          ],
          [
            121.3513102,
            24.7560367
          ],
          [
            121.3511851,
            24.7564435
          ],
          [
            121.351187,
            24.7567547
          ],
          [
            121.3514118,
            24.7572484
          ],
          [
            121.3522258,
            24.7578071
          ],
          [
            121.3537836,
            24.7583932
          ],
          [
            121.3542287,
            24.7584638
          ],
          [
            121.354658,
            24.7584476
          ],
          [
            121.3552784,
            24.7584675
          ],
          [
            121.355595,
            24.7585241
          ],
          [
            121.3557877,
            24.7586728
          ],
          [
            121.3559889,
            24.7589444
          ],
          [
            121.3562014,
            24.7591239
          ],
          [
            121.357361,
            24.7597906
          ],
          [
            121.3576161,
            24.7599979
          ],
          [
            121.3577331,
            24.7601965
          ],
          [
            121.3577262,
            24.7604361
          ],
          [
            121.3575223,
            24.7607005
          ],
          [
            121.3571325,
            24.7609779
          ],
          [
            121.356627,
            24.7612486
          ],
          [
            121.3558825,
            24.7614543
          ],
          [
            121.3554447,
            24.7616274
          ],
          [
            121.3550546,
            24.7619451
          ],
          [
            121.3546043,
            24.7624899
          ],
          [
            121.3543531,
            24.7631287
          ],
          [
            121.3542762,
            24.7639706
          ],
          [
            121.3545694,
            24.7646155
          ],
          [
            121.3552943,
            24.7653374
          ],
          [
            121.3563158,
            24.7657954
          ],
          [
            121.3567469,
            24.7660822
          ],
          [
            121.3571462,
            24.766586
          ],
          [
            121.3575102,
            24.7668814
          ],
          [
            121.3582485,
            24.7670827
          ],
          [
            121.3599168,
            24.7671729
          ],
          [
            121.3609782,
            24.7672632
          ],
          [
            121.3617488,
            24.7674413
          ],
          [
            121.3623807,
            24.7677718
          ],
          [
            121.3628139,
            24.7682677
          ],
          [
            121.3628867,
            24.7686741
          ],
          [
            121.3628603,
            24.7695912
          ],
          [
            121.3625034,
            24.7711493
          ],
          [
            121.3625065,
            24.7716136
          ],
          [
            121.3625101,
            24.7721582
          ],
          [
            121.3629921,
            24.773491
          ],
          [
            121.3637783,
            24.7749056
          ],
          [
            121.3638393,
            24.7753473
          ],
          [
            121.3638123,
            24.7757391
          ],
          [
            121.363623,
            24.7770051
          ],
          [
            121.3635451,
            24.7774345
          ],
          [
            121.3634738,
            24.777673
          ],
          [
            121.3632192,
            24.7789599
          ],
          [
            121.3631581,
            24.7799775
          ],
          [
            121.3633095,
            24.7813283
          ],
          [
            121.3634936,
            24.7822292
          ],
          [
            121.3638382,
            24.7828345
          ],
          [
            121.3642566,
            24.7840352
          ],
          [
            121.3642319,
            24.7852115
          ],
          [
            121.3643076,
            24.7861591
          ],
          [
            121.3650125,
            24.788054
          ],
          [
            121.3656462,
            24.7890047
          ],
          [
            121.3664136,
            24.7897407
          ],
          [
            121.3671034,
            24.7901525
          ],
          [
            121.368303,
            24.7909875
          ],
          [
            121.3696187,
            24.7919058
          ],
          [
            121.3709743,
            24.7930375
          ],
          [
            121.3717468,
            24.7937465
          ],
          [
            121.3724496,
            24.7945728
          ],
          [
            121.3727999,
            24.7952043
          ],
          [
            121.3729253,
            24.7958248
          ],
          [
            121.372767,
            24.7963633
          ],
          [
            121.3724504,
            24.796776
          ],
          [
            121.3717339,
            24.797139
          ],
          [
            121.3710094,
            24.7973106
          ],
          [
            121.3700797,
            24.7973951
          ],
          [
            121.3694048,
            24.7975334
          ],
          [
            121.3689234,
            24.7977033
          ],
          [
            121.3685004,
            24.7980147
          ],
          [
            121.3677467,
            24.7988245
          ],
          [
            121.3671789,
            24.799811
          ],
          [
            121.3664678,
            24.8010432
          ],
          [
            121.3655066,
            24.8027217
          ],
          [
            121.3652876,
            24.802991
          ],
          [
            121.3647519,
            24.8036037
          ],
          [
            121.3641037,
            24.8042934
          ],
          [
            121.362346,
            24.8057647
          ],
          [
            121.3596541,
            24.8057031
          ],
          [
            121.3592578,
            24.8056278
          ],
          [
            121.3586326,
            24.8053376
          ],
          [
            121.3568931,
            24.8040896
          ],
          [
            121.356083,
            24.8041746
          ],
          [
            121.3558418,
            24.8041999
          ],
          [
            121.3556512,
            24.8042199
          ],
          [
            121.3540025,
            24.8040995
          ],
          [
            121.3517389,
            24.8049165
          ],
          [
            121.3511086,
            24.8053194
          ],
          [
            121.348496,
            24.806883
          ],
          [
            121.348228,
            24.8077899
          ],
          [
            121.3477184,
            24.8095144
          ],
          [
            121.3470731,
            24.8106604
          ],
          [
            121.3467597,
            24.8106832
          ],
          [
            121.3456702,
            24.8107623
          ],
          [
            121.3454198,
            24.8106176
          ],
          [
            121.3444357,
            24.8100492
          ],
          [
            121.3441494,
            24.8094989
          ],
          [
            121.3439587,
            24.8091324
          ],
          [
            121.3439587,
            24.8080627
          ],
          [
            121.3430609,
            24.8072223
          ],
          [
            121.3417142,
            24.8060253
          ],
          [
            121.3414055,
            24.8048282
          ],
          [
            121.3407367,
            24.8017623
          ],
          [
            121.340298,
            24.8007979
          ],
          [
            121.3397221,
            24.8003712
          ],
          [
            121.3376459,
            24.7991996
          ],
          [
            121.337455,
            24.7991708
          ],
          [
            121.3372733,
            24.7991713
          ],
          [
            121.336215,
            24.7991741
          ],
          [
            121.3336627,
            24.8003979
          ],
          [
            121.3329323,
            24.8007532
          ],
          [
            121.3323873,
            24.801222
          ],
          [
            121.3317209,
            24.8017637
          ],
          [
            121.3313166,
            24.8021102
          ],
          [
            121.3309039,
            24.8023697
          ],
          [
            121.3301583,
            24.8028222
          ],
          [
            121.329048,
            24.8032747
          ],
          [
            121.3277604,
            24.8037235
          ],
          [
            121.3266499,
            24.8037969
          ],
          [
            121.3257971,
            24.8036311
          ],
          [
            121.3250399,
            24.8033296
          ],
          [
            121.3246743,
            24.8030909
          ],
          [
            121.3239248,
            24.8025557
          ],
          [
            121.322832,
            24.8019328
          ],
          [
            121.3217255,
            24.8014853
          ],
          [
            121.3211876,
            24.8013398
          ],
          [
            121.3206491,
            24.8013187
          ],
          [
            121.3201576,
            24.8013596
          ],
          [
            121.3195862,
            24.8015389
          ],
          [
            121.3182023,
            24.8021285
          ],
          [
            121.3158286,
            24.8033423
          ],
          [
            121.3152409,
            24.8036428
          ],
          [
            121.3137693,
            24.8043953
          ],
          [
            121.3119997,
            24.8053491
          ],
          [
            121.310178,
            24.8063309
          ],
          [
            121.3091264,
            24.8067224
          ],
          [
            121.3051838,
            24.8081901
          ],
          [
            121.3029892,
            24.8082574
          ],
          [
            121.299376,
            24.8083683
          ],
          [
            121.294902,
            24.8105934
          ],
          [
            121.2936198,
            24.8112311
          ],
          [
            121.2917455,
            24.8121719
          ],
          [
            121.2896673,
            24.8132078
          ],
          [
            121.2882604,
            24.8141106
          ],
          [
            121.2858345,
            24.8156672
          ],
          [
            121.2839926,
            24.81582
          ],
          [
            121.2822415,
            24.8159653
          ],
          [
            121.2790849,
            24.8158931
          ],
          [
            121.2785577,
            24.8158811
          ],
          [
            121.2781915,
            24.8158326
          ],
          [
            121.2720204,
            24.8150153
          ],
          [
            121.2707539,
            24.8148345
          ],
          [
            121.2650622,
            24.8140221
          ],
          [
            121.2647255,
            24.8124431
          ],
          [
            121.2660442,
            24.8096672
          ],
          [
            121.2665959,
            24.8062677
          ],
          [
            121.2653269,
            24.8050431
          ],
          [
            121.2631316,
            24.8047618
          ],
          [
            121.2610393,
            24.8048874
          ],
          [
            121.2594788,
            24.8049811
          ],
          [
            121.2563645,
            24.8061017
          ],
          [
            121.2545127,
            24.8077062
          ],
          [
            121.2537552,
            24.8098964
          ],
          [
            121.2515948,
            24.8103039
          ],
          [
            121.2495747,
            24.809438
          ],
          [
            121.247274,
            24.8086739
          ],
          [
            121.2460743,
            24.8100322
          ],
          [
            121.2459783,
            24.8111443
          ],
          [
            121.2459548,
            24.8112173
          ],
          [
            121.2456256,
            24.8130391
          ]
        ]
      },
      "properties": {
        "osm_way_id": 367737287,
        "name": "大漢溪",
        "waterway": "river",
        "source": "OSM"
      }
    },
    {
      "type": "Feature",
      "geometry": {
        "type": "LineString",
        "coordinates": [
          [
            121.3966512,
            24.9669197
          ],
          [
            121.3975209,
            24.9672284
          ],
          [
            121.3983916,
            24.9676691
          ],
          [
            121.3990272,
            24.9680073
          ],
          [
            121.403736,
            24.9681585
          ],
          [
            121.4061111,
            24.9681629
          ],
          [
            121.4078086,
            24.9682628
          ],
          [
            121.4104145,
            24.9681612
          ],
          [
            121.4109231,
            24.9672707
          ],
          [
            121.4118002,
            24.9661745
          ],
          [
            121.4122883,
            24.966483
          ],
          [
            121.4129242,
            24.9667921
          ],
          [
            121.4141249,
            24.967317
          ],
          [
            121.4163283,
            24.9679209
          ],
          [
            121.4194286,
            24.9683456
          ],
          [
            121.4213237,
            24.9686491
          ],
          [
            121.4237369,
            24.9695138
          ],
          [
            121.4250349,
            24.9707731
          ],
          [
            121.4253041,
            24.9712081
          ],
          [
            121.42658,
            24.97327
          ],
          [
            121.4274373,
            24.9750311
          ],
          [
            121.428304,
            24.9772487
          ],
          [
            121.4293746,
            24.9787017
          ],
          [
            121.4297578,
            24.9790077
          ],
          [
            121.4313262,
            24.9802603
          ],
          [
            121.4314039,
            24.9803363
          ],
          [
            121.4324974,
            24.981406
          ],
          [
            121.4339284,
            24.9830993
          ],
          [
            121.4356861,
            24.9859686
          ],
          [
            121.4363154,
            24.9880764
          ],
          [
            121.43641,
            24.9901214
          ],
          [
            121.4363291,
            24.9920738
          ],
          [
            121.4362315,
            24.9944293
          ],
          [
            121.4364355,
            24.9969784
          ],
          [
            121.4365596,
            25.0006202
          ],
          [
            121.4365884,
            25.0014647
          ],
          [
            121.4372511,
            25.0059255
          ],
          [
            121.4384747,
            25.0097236
          ],
          [
            121.4396473,
            25.0123746
          ],
          [
            121.4415335,
            25.0152805
          ],
          [
            121.4436238,
            25.0186198
          ],
          [
            121.4452385,
            25.0207697
          ],
          [
            121.4467081,
            25.0231826
          ],
          [
            121.4495198,
            25.0269634
          ],
          [
            121.4519592,
            25.0302434
          ],
          [
            121.4526411,
            25.0308234
          ],
          [
            121.4541768,
            25.0321297
          ],
          [
            121.4560631,
            25.0332513
          ],
          [
            121.459173,
            25.0350101
          ],
          [
            121.4635063,
            25.0368709
          ],
          [
            121.4700064,
            25.039267
          ],
          [
            121.4742123,
            25.0400573
          ],
          [
            121.4798457,
            25.0412298
          ],
          [
            121.4885944,
            25.044339
          ]
        ]
      },
      "properties": {
        "osm_way_id": 1006182052,
        "name": "大漢溪",
        "waterway": "river",
        "source": "OSM"
      }
    },
    {
      "type": "Feature",
      "geometry": {
        "type": "LineString",
        "coordinates": [
          [
            121.3838835,
            24.961357
          ],
          [
            121.3845967,
            24.9621068
          ],
          [
            121.3847046,
            24.962998
          ],
          [
            121.3858254,
            24.9636772
          ],
          [
            121.3876753,
            24.9640818
          ],
          [
            121.3883779,
            24.9642355
          ],
          [
            121.389685,
            24.9646028
          ],
          [
            121.3903336,
            24.964989
          ],
          [
            121.3911895,
            24.9652612
          ],
          [
            121.3930914,
            24.9660429
          ],
          [
            121.3938734,
            24.9661349
          ],
          [
            121.3951972,
            24.9664025
          ],
          [
            121.3966512,
            24.9669197
          ]
        ]
      },
      "properties": {
        "osm_way_id": 1006182056,
        "name": "大漢溪",
        "waterway": "river",
        "source": "OSM"
      }
    },
    {
      "type": "Feature",
      "geometry": {
        "type": "LineString",
        "coordinates": [
          [
            121.2456063,
            24.8131459
          ],
          [
            121.2455413,
            24.8135055
          ],
          [
            121.2457236,
            24.814827
          ],
          [
            121.2461221,
            24.8164983
          ],
          [
            121.247482,
            24.8181053
          ],
          [
            121.247677,
            24.8183261
          ],
          [
            121.2480672,
            24.818792
          ],
          [
            121.2484456,
            24.8192439
          ],
          [
            121.2499555,
            24.8215494
          ],
          [
            121.251684,
            24.8241887
          ],
          [
            121.2529066,
            24.8252436
          ],
          [
            121.2531983,
            24.826204
          ],
          [
            121.2540511,
            24.8290113
          ],
          [
            121.256111,
            24.8329061
          ],
          [
            121.2579993,
            24.8350871
          ],
          [
            121.2585508,
            24.8355251
          ],
          [
            121.2612831,
            24.8384115
          ],
          [
            121.263504,
            24.8406606
          ],
          [
            121.2648657,
            24.8434993
          ],
          [
            121.2655707,
            24.8447787
          ],
          [
            121.266754,
            24.8469263
          ],
          [
            121.2695006,
            24.8486398
          ],
          [
            121.2727622,
            24.8512878
          ],
          [
            121.2731409,
            24.8552374
          ],
          [
            121.2734923,
            24.8571017
          ],
          [
            121.2733977,
            24.859935
          ],
          [
            121.2738168,
            24.8624983
          ],
          [
            121.273899,
            24.86401
          ],
          [
            121.2744802,
            24.8660827
          ],
          [
            121.2751561,
            24.8681553
          ],
          [
            121.2763051,
            24.8696761
          ],
          [
            121.2770485,
            24.8700931
          ],
          [
            121.2777222,
            24.8708749
          ],
          [
            121.2783854,
            24.8726712
          ],
          [
            121.2785986,
            24.8732488
          ],
          [
            121.2797321,
            24.8764668
          ],
          [
            121.2797729,
            24.8776821
          ],
          [
            121.2799823,
            24.8784732
          ],
          [
            121.2818883,
            24.8817719
          ],
          [
            121.2829291,
            24.8835746
          ],
          [
            121.2834755,
            24.8838993
          ],
          [
            121.2837131,
            24.8840405
          ],
          [
            121.2839162,
            24.8849964
          ],
          [
            121.2843421,
            24.8870008
          ],
          [
            121.2846552,
            24.8881723
          ],
          [
            121.285081,
            24.8888752
          ],
          [
            121.2852216,
            24.889441
          ],
          [
            121.285466,
            24.889984
          ],
          [
            121.2868838,
            24.8915171
          ],
          [
            121.2888998,
            24.8927009
          ],
          [
            121.2901941,
            24.8931798
          ],
          [
            121.2910795,
            24.894138
          ],
          [
            121.2920185,
            24.8951542
          ],
          [
            121.2923996,
            24.8955666
          ],
          [
            121.2947348,
            24.8973859
          ],
          [
            121.2957424,
            24.8985538
          ],
          [
            121.2967898,
            24.8989632
          ],
          [
            121.2991656,
            24.9006238
          ],
          [
            121.3001193,
            24.9028946
          ],
          [
            121.3005962,
            24.9048951
          ],
          [
            121.3008738,
            24.9056737
          ],
          [
            121.3011442,
            24.9060258
          ],
          [
            121.3017237,
            24.9066016
          ],
          [
            121.3022304,
            24.907105
          ],
          [
            121.3036001,
            24.907912
          ],
          [
            121.3050753,
            24.9085328
          ],
          [
            121.3056799,
            24.9083011
          ],
          [
            121.3074426,
            24.9079381
          ],
          [
            121.3091464,
            24.9087927
          ],
          [
            121.3115401,
            24.9101138
          ],
          [
            121.3128869,
            24.9105821
          ],
          [
            121.3139867,
            24.9112335
          ],
          [
            121.3147968,
            24.9118274
          ],
          [
            121.3167251,
            24.9127807
          ],
          [
            121.3173875,
            24.9155485
          ],
          [
            121.318184,
            24.917768
          ],
          [
            121.3188125,
            24.9182159
          ],
          [
            121.3191717,
            24.9189487
          ],
          [
            121.3200825,
            24.9201533
          ],
          [
            121.3226732,
            24.9221242
          ],
          [
            121.3235666,
            24.9236317
          ],
          [
            121.3244464,
            24.9251164
          ],
          [
            121.3248808,
            24.9256177
          ],
          [
            121.3265406,
            24.9271429
          ],
          [
            121.3320843,
            24.9284933
          ],
          [
            121.334307,
            24.9282201
          ],
          [
            121.3366953,
            24.9278811
          ],
          [
            121.3395384,
            24.9288349
          ],
          [
            121.342374,
            24.9304208
          ],
          [
            121.3437579,
            24.9319696
          ],
          [
            121.3446179,
            24.932155
          ],
          [
            121.3451288,
            24.9318847
          ],
          [
            121.3459378,
            24.9321086
          ],
          [
            121.3473899,
            24.9331233
          ],
          [
            121.3479577,
            24.9342633
          ],
          [
            121.3486606,
            24.9369354
          ],
          [
            121.3491187,
            24.9389247
          ],
          [
            121.3501642,
            24.9406446
          ],
          [
            121.3551596,
            24.9475136
          ],
          [
            121.357424,
            24.9489377
          ],
          [
            121.3580676,
            24.9497512
          ],
          [
            121.358903,
            24.950262
          ],
          [
            121.3593765,
            24.9503512
          ],
          [
            121.3599442,
            24.9506755
          ],
          [
            121.3603738,
            24.9509594
          ],
          [
            121.3617385,
            24.9516346
          ],
          [
            121.3658777,
            24.9536826
          ],
          [
            121.3698933,
            24.9557376
          ],
          [
            121.371911,
            24.95657
          ],
          [
            121.3724841,
            24.9568065
          ],
          [
            121.3750894,
            24.9576774
          ],
          [
            121.3808736,
            24.9595927
          ],
          [
            121.3838835,
            24.961357
          ]
        ]
      },
      "properties": {
        "osm_way_id": 1445832262,
        "name": "大漢溪",
        "waterway": "river",
        "source": "OSM"
      }
    },
    {
      "type": "Feature",
      "geometry": {
        "type": "LineString",
        "coordinates": [
          [
            121.2456256,
            24.8130391
          ],
          [
            121.2456063,
            24.8131459
          ]
        ]
      },
      "properties": {
        "osm_way_id": 1445832263,
        "name": "大漢溪",
        "waterway": "river",
        "source": "OSM"
      }
    }
  ]
}